SL-14 R/B               
1 16496U 86006B   26063.06912488  .00000832  00000+0  86044-4 0  9999
2 16496  82.5234 265.0286 0075178 291.8180  67.5051 14.86806497148378
COSMOS 1743             
1 16719U 86034A   26063.76188667  .00042937  00000+0  56783-3 0  9997
2 16719  82.5293  79.0016 0002113 327.9620  32.1506 15.58143356179481
SL-14 R/B               
1 16792U 86046B   26063.48626885  .00000674  00000+0  74840-4 0  9996
2 16792  82.4782  85.0999 0021692 243.5622 116.3368 14.85584831125634
SL-14 R/B               
1 16882U 86055B   26063.28112624  .00000677  00000+0  75204-4 0  9993
2 16882  82.5211 131.7576 0018652 354.8736  72.5980 14.85637357118565
AJISAI (EGS)            
1 16908U 86061A   26063.74792667 -.00000072  00000+0  17578-3 0  9990
2 16908  50.0080 108.5442 0011253 274.3050 206.4152 12.44515577467385
SL-14 R/B               
1 17567U 87024B   26063.52156990  .00000615  00000+0  67358-4 0  9995
2 17567  82.5253  97.6226 0016678 278.6310  81.3017 14.86126555 87367
COSMOS 1833             
1 17589U 87027A   26063.76342491 -.00000133  00000+0 -45096-4 0  9993
2 17589  70.9232 336.3717 0024498 221.3697 138.5569 14.13055912  9627
SL-16 R/B               
1 17590U 87027B   26063.61020130 -.00000175  00000+0 -63137-4 0  9994
2 17590  71.0016 287.1996 0003648 153.6984 206.4326 14.17166118 14620
SL-14 R/B               
1 17912U 87038B   26063.58124910  .00000592  00000+0  65859-4 0  9995
2 17912  82.5011 301.6204 0019239 176.9984 183.1351 14.85364130 78476
COSMOS 1844             
1 17973U 87041A   26063.37954001 -.00000064  00000+0 -81771-5 0  9993
2 17973  70.8995  45.3754 0029710  25.8252 334.4345 14.14553313  2837
SL-14 R/B               
1 18153U 87055B   26063.76114967  .00000814  00000+0  90921-4 0  9998
2 18153  82.5029 353.6749 0021563  33.5975 326.6603 14.85622648 69201
COSMOS 1867             
1 18187U 87060A   26063.13179151  .00000027  00000+0  47656-4 0  9991
2 18187  65.0119 322.2699 0014403 278.3036  81.6415 14.31502083 19140
SL-14 R/B               
1 18749U 88001B   26063.48666816  .00000865  00000+0  97191-4 0  9997
2 18749  82.5144 200.2527 0016634 254.3437 105.5944 14.85520705 41258
COSMOS 1933             
1 18958U 88020A   26063.78019345  .00005482  00000+0  26875-3 0  9992
2 18958  82.5095 255.7710 0003416 201.6788 158.4301 15.17931029 49480
SL-3 R/B                
1 19046U 88032B   26063.79478737  .00007368  00000+0  34428-3 0  9997
2 19046  97.5184  47.0630 0024140 249.7787 110.0852 15.19839871 51365
SL-16 R/B               
1 19120U 88039B   26063.48421867  .00000001  00000+0  23281-4 0  9998
2 19120  71.0130  79.5557 0022482 342.0203  18.0125 14.19615702957641
