[{"OBJECT_NAME":"SL-14 R/B","OBJECT_ID":"1986-006B","EPOCH":"2026-03-04T01:39:32.389632","MEAN_MOTION":14.86806497,"ECCENTRICITY":0.00751787,"INCLINATION":82.5234,"RA_OF_ASC_NODE":265.0286,"ARG_OF_PERICENTER":291.818,"MEAN_ANOMALY":67.5051,"EPHEMERIS_TYPE":0,"CLASSIFICATION_TYPE":"U","NORAD_CAT_ID":16496,"ELEMENT_SET_NO":999,"REV_AT_EPOCH":14837,"BSTAR":8.6043588e-5,"MEAN_MOTION_DOT":8.32e-6,"MEAN_MOTION_DDOT":0},{"OBJECT_NAME":"COSMOS 1743","OBJECT_ID":"1986-034A","EPOCH":"2026-03-04T18:17:07.008288","MEAN_MOTION":15.58143356,"ECCENTRICITY":0.0002113,"INCLINATION":82.5293,"RA_OF_ASC_NODE":79.0016,"ARG_OF_PERICENTER":327.962,"MEAN_ANOMALY":32.1506,"EPHEMERIS_TYPE":0,"CLASSIFICATION_TYPE":"U","NORAD_CAT_ID":16719,"ELEMENT_SET_NO":999,"REV_AT_EPOCH":17948,"BSTAR":0.00056783,"MEAN_MOTION_DOT":0.00042937,"MEAN_MOTION_DDOT":0},{"OBJECT_NAME":"SL-14 R/B","OBJECT_ID":"1986-046B","EPOCH":"2026-03-04T11:40:13.628640","MEAN_MOTION":14.85584831,"ECCENTRICITY":0.00216924,"INCLINATION":82.4782,"RA_OF_ASC_NODE":85.0999,"ARG_OF_PERICENTER":243.5622,"MEAN_ANOMALY":116.3368,"EPHEMERIS_TYPE":0,"CLASSIFICATION_TYPE":"U","NORAD_CAT_ID":16792,"ELEMENT_SET_NO":999,"REV_AT_EPOCH":12563,"BSTAR":7.4839735e-5,"MEAN_MOTION_DOT":6.74e-6,"MEAN_MOTION_DDOT":0},{"OBJECT_NAME":"SL-14 R/B","OBJECT_ID":"1986-055B","EPOCH":"2026-03-04T06:44:49.307136","MEAN_MOTION":14.85637357,"ECCENTRICITY":0.00186527,"INCLINATION":82.5211,"RA_OF_ASC_NODE":131.7576,"ARG_OF_PERICENTER":354.8736,"MEAN_ANOMALY":72.598,"EPHEMERIS_TYPE":0,"CLASSIFICATION_TYPE":"U","NORAD_CAT_ID":16882,"ELEMENT_SET_NO":999,"REV_AT_EPOCH":11856,"BSTAR":7.5203954e-5,"MEAN_MOTION_DOT":6.77e-6,"MEAN_MOTION_DDOT":0},{"OBJECT_NAME":"AJISAI (EGS)","OBJECT_ID":"1986-061A","EPOCH":"2026-03-04T17:57:00.864288","MEAN_MOTION":12.44515577,"ECCENTRICITY":0.0011253,"INCLINATION":50.008,"RA_OF_ASC_NODE":108.5442,"ARG_OF_PERICENTER":274.305,"MEAN_ANOMALY":206.4152,"EPHEMERIS_TYPE":0,"CLASSIFICATION_TYPE":"U","NORAD_CAT_ID":16908,"ELEMENT_SET_NO":999,"REV_AT_EPOCH":46738,"BSTAR":0.00017578,"MEAN_MOTION_DOT":-7.2e-7,"MEAN_MOTION_DDOT":0},{"OBJECT_NAME":"SL-14 R/B","OBJECT_ID":"1987-024B","EPOCH":"2026-03-04T12:31:03.639360","MEAN_MOTION":14.86126555,"ECCENTRICITY":0.0016678,"INCLINATION":82.5253,"RA_OF_ASC_NODE":97.6226,"ARG_OF_PERICENTER":278.631,"MEAN_ANOMALY":81.3017,"EPHEMERIS_TYPE":0,"CLASSIFICATION_TYPE":"U","NORAD_CAT_ID":17567,"ELEMENT_SET_NO":999,"REV_AT_EPOCH":8736,"BSTAR":6.7358e-5,"MEAN_MOTION_DOT":6.15e-6,"MEAN_MOTION_DDOT":0},{"OBJECT_NAME":"COSMOS 1833","OBJECT_ID":"1987-027A","EPOCH":"2026-03-04T18:19:19.912224","MEAN_MOTION":14.13055912,"ECCENTRICITY":0.0024498,"INCLINATION":70.9232,"RA_OF_ASC_NODE":336.3717,"ARG_OF_PERICENTER":221.3697,"MEAN_ANOMALY":138.5569,"EPHEMERIS_TYPE":0,"CLASSIFICATION_TYPE":"U","NORAD_CAT_ID":17589,"ELEMENT_SET_NO":999,"REV_AT_EPOCH":962,"BSTAR":-4.5096e-5,"MEAN_MOTION_DOT":-1.33e-6,"MEAN_MOTION_DDOT":0},{"OBJECT_NAME":"SL-16 R/B","OBJECT_ID":"1987-027B","EPOCH":"2026-03-04T14:38:41.392320","MEAN_MOTION":14.17166118,"ECCENTRICITY":0.0003648,"INCLINATION":71.0016,"RA_OF_ASC_NODE":287.1996,"ARG_OF_PERICENTER":153.6984,"MEAN_ANOMALY":206.4326,"EPHEMERIS_TYPE":0,"CLASSIFICATION_TYPE":"U","NORAD_CAT_ID":17590,"ELEMENT_SET_NO":999,"REV_AT_EPOCH":1462,"BSTAR":-6.3137e-5,"MEAN_MOTION_DOT":-1.75e-6,"MEAN_MOTION_DDOT":0},{"OBJECT_NAME":"SL-14 R/B","OBJECT_ID":"1987-038B","EPOCH":"2026-03-04T13:56:59.922240","MEAN_MOTION":14.8536413,"ECCENTRICITY":0.0019239,"INCLINATION":82.5011,"RA_OF_ASC_NODE":301.6204,"ARG_OF_PERICENTER":176.9984,"MEAN_ANOMALY":183.1351,"EPHEMERIS_TYPE":0,"CLASSIFICATION_TYPE":"U","NORAD_CAT_ID":17912,"ELEMENT_SET_NO":999,"REV_AT_EPOCH":7847,"BSTAR":6.5859e-5,"MEAN_MOTION_DOT":5.92e-6,"MEAN_MOTION_DDOT":0},{"OBJECT_NAME":"COSMOS 1844","OBJECT_ID":"1987-041A","EPOCH":"2026-03-04T09:06:32.256864","MEAN_MOTION":14.14553313,"ECCENTRICITY":0.00297105,"INCLINATION":70.8995,"RA_OF_ASC_NODE":45.3754,"ARG_OF_PERICENTER":25.8252,"MEAN_ANOMALY":334.4345,"EPHEMERIS_TYPE":0,"CLASSIFICATION_TYPE":"U","NORAD_CAT_ID":17973,"ELEMENT_SET_NO":999,"REV_AT_EPOCH":283,"BSTAR":-8.177092e-6,"MEAN_MOTION_DOT":-6.4e-7,"MEAN_MOTION_DDOT":0},{"OBJECT_NAME":"SL-14 R/B","OBJECT_ID":"1987-055B","EPOCH":"2026-03-04T18:16:03.331488","MEAN_MOTION":14.85622648,"ECCENTRICITY":0.0021563,"INCLINATION":82.5029,"RA_OF_ASC_NODE":353.6749,"ARG_OF_PERICENTER":33.5975,"MEAN_ANOMALY":326.6603,"EPHEMERIS_TYPE":0,"CLASSIFICATION_TYPE":"U","NORAD_CAT_ID":18153,"ELEMENT_SET_NO":999,"REV_AT_EPOCH":6920,"BSTAR":9.0921e-5,"MEAN_MOTION_DOT":8.14e-6,"MEAN_MOTION_DDOT":0},{"OBJECT_NAME":"COSMOS 1867","OBJECT_ID":"1987-060A","EPOCH":"2026-03-04T03:09:46.786464","MEAN_MOTION":14.31502083,"ECCENTRICITY":0.00144036,"INCLINATION":65.0119,"RA_OF_ASC_NODE":322.2699,"ARG_OF_PERICENTER":278.3036,"MEAN_ANOMALY":81.6415,"EPHEMERIS_TYPE":0,"CLASSIFICATION_TYPE":"U","NORAD_CAT_ID":18187,"ELEMENT_SET_NO":999,"REV_AT_EPOCH":1914,"BSTAR":4.7656418e-5,"MEAN_MOTION_DOT":2.7e-7,"MEAN_MOTION_DDOT":0},{"OBJECT_NAME":"SL-14 R/B","OBJECT_ID":"1988-001B","EPOCH":"2026-03-04T11:40:48.129024","MEAN_MOTION":14.85520705,"ECCENTRICITY":0.00166345,"INCLINATION":82.5144,"RA_OF_ASC_NODE":200.2527,"ARG_OF_PERICENTER":254.3437,"MEAN_ANOMALY":105.5944,"EPHEMERIS_TYPE":0,"CLASSIFICATION_TYPE":"U","NORAD_CAT_ID":18749,"ELEMENT_SET_NO":999,"REV_AT_EPOCH":4125,"BSTAR":9.7191394e-5,"MEAN_MOTION_DOT":8.65e-6,"MEAN_MOTION_DDOT":0},{"OBJECT_NAME":"COSMOS 1933","OBJECT_ID":"1988-020A","EPOCH":"2026-03-04T18:43:28.714080","MEAN_MOTION":15.17931029,"ECCENTRICITY":0.0003416,"INCLINATION":82.5095,"RA_OF_ASC_NODE":255.771,"ARG_OF_PERICENTER":201.6788,"MEAN_ANOMALY":158.4301,"EPHEMERIS_TYPE":0,"CLASSIFICATION_TYPE":"U","NORAD_CAT_ID":18958,"ELEMENT_SET_NO":999,"REV_AT_EPOCH":4948,"BSTAR":0.00026875,"MEAN_MOTION_DOT":5.482e-5,"MEAN_MOTION_DDOT":0},{"OBJECT_NAME":"SL-3 R/B","OBJECT_ID":"1988-032B","EPOCH":"2026-03-04T19:04:29.628768","MEAN_MOTION":15.19839871,"ECCENTRICITY":0.002414,"INCLINATION":97.5184,"RA_OF_ASC_NODE":47.063,"ARG_OF_PERICENTER":249.7787,"MEAN_ANOMALY":110.0852,"EPHEMERIS_TYPE":0,"CLASSIFICATION_TYPE":"U","NORAD_CAT_ID":19046,"ELEMENT_SET_NO":999,"REV_AT_EPOCH":5136,"BSTAR":0.00034428,"MEAN_MOTION_DOT":7.368e-5,"MEAN_MOTION_DDOT":0},{"OBJECT_NAME":"SL-16 R/B","OBJECT_ID":"1988-039B","EPOCH":"2026-03-04T11:37:16.493088","MEAN_MOTION":14.19615702,"ECCENTRICITY":0.00224822,"INCLINATION":71.013,"RA_OF_ASC_NODE":79.5557,"ARG_OF_PERICENTER":342.0203,"MEAN_ANOMALY":18.0125,"EPHEMERIS_TYPE":0,"CLASSIFICATION_TYPE":"U","NORAD_CAT_ID":19120,"ELEMENT_SET_NO":999,"REV_AT_EPOCH":95764,"BSTAR":2.328117e-5,"MEAN_MOTION_DOT":1.0e-8,"MEAN_MOTION_DDOT":0}]
